{
  "type": "FeatureCollection",
  "features": [
    {
      "type": "Feature",
      "properties": {
        "norad_id": 29780,
        "name": "FENGYUN 1C DEB",
        "group": "fengyun-1c-debris",
        "lat": -80.13514741467519,
        "lon": -31.13517598973553,
        "alt_km": 843.8978188057208,
        "timestamp": "2025-12-04T07:39:36.407286+00:00",
        "meta_object_name": "FENGYUN 1C DEB",
        "meta_object_id": "1999-025BW",
        "meta_epoch": "2025-12-03T13:28:49.934784",
        "meta_mean_motion": 14.20932548,
        "meta_eccentricity": 0.00398241,
        "meta_inclination": 99.2769,
        "meta_ra_of_asc_node": 258.0336,
        "meta_arg_of_pericenter": 155.1284,
        "meta_mean_anomaly": 205.1822,
        "meta_ephemeris_type": 0,
        "meta_classification_type": "U",
        "meta_norad_cat_id": 29780,
        "meta_element_set_no": 999,
        "meta_rev_at_epoch": 96948,
        "meta_bstar": 0.0024653537,
        "meta_mean_motion_dot": 5.336e-05,
        "meta_mean_motion_ddot": 0,
        "tle_line1": "1 29780U 99025BW  25337.56168906  .00005336  00000+0  24654-2 0  9991",
        "tle_line2": "2 29780  99.2769 258.0336 0039824 155.1284 205.1822 14.20932548969483"
      },
      "geometry": {
        "type": "Point",
        "coordinates": [
          -31.13517598973553,
          -80.13514741467519
        ]
      }
    },
    {
      "type": "Feature",
      "properties": {
        "norad_id": 29781,
        "name": "FENGYUN 1C DEB",
        "group": "fengyun-1c-debris",
        "lat": -17.599266095656606,
        "lon": -24.46447521950031,
        "alt_km": 923.3916300996752,
        "timestamp": "2025-12-04T07:39:36.407296+00:00",
        "meta_object_name": "FENGYUN 1C DEB",
        "meta_object_id": "1999-025BX",
        "meta_epoch": "2025-12-02T10:23:26.022048",
        "meta_mean_motion": 14.05194771,
        "meta_eccentricity": 0.00715522,
        "meta_inclination": 98.8102,
        "meta_ra_of_asc_node": 330.8835,
        "meta_arg_of_pericenter": 202.0664,
        "meta_mean_anomaly": 323.1548,
        "meta_ephemeris_type": 0,
        "meta_classification_type": "U",
        "meta_norad_cat_id": 29781,
        "meta_element_set_no": 999,
        "meta_rev_at_epoch": 96498,
        "meta_bstar": 0.00076838989,
        "meta_mean_motion_dot": 1.227e-05,
        "meta_mean_motion_ddot": 0,
        "tle_line1": "1 29781U 99025BX  25336.43294007  .00001227  00000+0  76839-3 0  9997",
        "tle_line2": "2 29781  98.8102 330.8835 0071552 202.0664 323.1548 14.05194771964988"
      },
      "geometry": {
        "type": "Point",
        "coordinates": [
          -24.46447521950031,
          -17.599266095656606
        ]
      }
    },
    {
      "type": "Feature",
      "properties": {
        "norad_id": 29782,
        "name": "FENGYUN 1C DEB",
        "group": "fengyun-1c-debris",
        "lat": -4.313049352832614,
        "lon": -148.89597018465872,
        "alt_km": 827.6250358299558,
        "timestamp": "2025-12-04T07:39:36.407306+00:00",
        "meta_object_name": "FENGYUN 1C DEB",
        "meta_object_id": "1999-025BY",
        "meta_epoch": "2025-12-03T16:04:08.160096",
        "meta_mean_motion": 14.11589753,
        "meta_eccentricity": 0.00550133,
        "meta_inclination": 99.1011,
        "meta_ra_of_asc_node": 31.1381,
        "meta_arg_of_pericenter": 227.9382,
        "meta_mean_anomaly": 257.2972,
        "meta_ephemeris_type": 0,
        "meta_classification_type": "U",
        "meta_norad_cat_id": 29782,
        "meta_element_set_no": 999,
        "meta_rev_at_epoch": 96543,
        "meta_bstar": 0.0020603752,
        "meta_mean_motion_dot": 3.752e-05,
        "meta_mean_motion_ddot": 0,
        "tle_line1": "1 29782U 99025BY  25337.66953889  .00003752  00000+0  20604-2 0  9997",
        "tle_line2": "2 29782  99.1011  31.1381 0055013 227.9382 257.2972 14.11589753965430"
      },
      "geometry": {
        "type": "Point",
        "coordinates": [
          -148.89597018465872,
          -4.313049352832614
        ]
      }
    },
    {
      "type": "Feature",
      "properties": {
        "norad_id": 29784,
        "name": "FENGYUN 1C DEB",
        "group": "fengyun-1c-debris",
        "lat": 54.37355957470429,
        "lon": 89.5728462963894,
        "alt_km": 825.6796949843301,
        "timestamp": "2025-12-04T07:39:36.407315+00:00",
        "meta_object_name": "FENGYUN 1C DEB",
        "meta_object_id": "1999-025CA",
        "meta_epoch": "2025-12-03T17:54:03.282912",
        "meta_mean_motion": 14.30537968,
        "meta_eccentricity": 0.00599481,
        "meta_inclination": 98.9447,
        "meta_ra_of_asc_node": 256.2877,
        "meta_arg_of_pericenter": 323.8427,
        "meta_mean_anomaly": 89.7228,
        "meta_ephemeris_type": 0,
        "meta_classification_type": "U",
        "meta_norad_cat_id": 29784,
        "meta_element_set_no": 999,
        "meta_rev_at_epoch": 98231,
        "meta_bstar": 0.00088119544,
        "meta_mean_motion_dot": 2.296e-05,
        "meta_mean_motion_ddot": 0,
        "tle_line1": "1 29784U 99025CA  25337.74587133  .00002296  00000+0  88120-3 0  9993",
        "tle_line2": "2 29784  98.9447 256.2877 0059948 323.8427  89.7228 14.30537968982319"
      },
      "geometry": {
        "type": "Point",
        "coordinates": [
          89.5728462963894,
          54.37355957470429
        ]
      }
    },
    {
      "type": "Feature",
      "properties": {
        "norad_id": 29786,
        "name": "FENGYUN 1C DEB",
        "group": "fengyun-1c-debris",
        "lat": -5.400217863705386,
        "lon": -3.374235092623132,
        "alt_km": 816.3840441501143,
        "timestamp": "2025-12-04T07:39:36.407325+00:00",
        "meta_object_name": "FENGYUN 1C DEB",
        "meta_object_id": "1999-025CC",
        "meta_epoch": "2025-12-03T13:31:19.806816",
        "meta_mean_motion": 14.09075012,
        "meta_eccentricity": 0.00772931,
        "meta_inclination": 98.7362,
        "meta_ra_of_asc_node": 355.0602,
        "meta_arg_of_pericenter": 329.2567,
        "meta_mean_anomaly": 153.4671,
        "meta_ephemeris_type": 0,
        "meta_classification_type": "U",
        "meta_norad_cat_id": 29786,
        "meta_element_set_no": 999,
        "meta_rev_at_epoch": 97031,
        "meta_bstar": 0.00027821296,
        "meta_mean_motion_dot": 4.53e-06,
        "meta_mean_motion_ddot": 0,
        "tle_line1": "1 29786U 99025CC  25337.56342369  .00000453  00000+0  27821-3 0  9999",
        "tle_line2": "2 29786  98.7362 355.0602 0077293 329.2567 153.4671 14.09075012970318"
      },
      "geometry": {
        "type": "Point",
        "coordinates": [
          -3.374235092623132,
          -5.400217863705386
        ]
      }
    },
    {
      "type": "Feature",
      "properties": {
        "norad_id": 29788,
        "name": "FENGYUN 1C DEB",
        "group": "fengyun-1c-debris",
        "lat": 41.19150148003073,
        "lon": -122.2980322731451,
        "alt_km": 793.9136155254218,
        "timestamp": "2025-12-04T07:39:36.407334+00:00",
        "meta_object_name": "FENGYUN 1C DEB",
        "meta_object_id": "1999-025CE",
        "meta_epoch": "2025-12-03T16:26:45.932640",
        "meta_mean_motion": 14.25855507,
        "meta_eccentricity": 0.00427854,
        "meta_inclination": 98.7854,
        "meta_ra_of_asc_node": 49.2883,
        "meta_arg_of_pericenter": 214.4535,
        "meta_mean_anomaly": 272.0271,
        "meta_ephemeris_type": 0,
        "meta_classification_type": "U",
        "meta_norad_cat_id": 29788,
        "meta_element_set_no": 999,
        "meta_rev_at_epoch": 97226,
        "meta_bstar": 0.0026646939,
        "meta_mean_motion_dot": 6.362e-05,
        "meta_mean_motion_ddot": 0,
        "tle_line1": "1 29788U 99025CE  25337.68525385  .00006362  00000+0  26647-2 0  9994",
        "tle_line2": "2 29788  98.7854  49.2883 0042785 214.4535 272.0271 14.25855507972260"
      },
      "geometry": {
        "type": "Point",
        "coordinates": [
          -122.2980322731451,
          41.19150148003073
        ]
      }
    },
    {
      "type": "Feature",
      "properties": {
        "norad_id": 29789,
        "name": "FENGYUN 1C DEB",
        "group": "fengyun-1c-debris",
        "lat": -64.171656603339,
        "lon": -178.4008955228091,
        "alt_km": 843.1640326405623,
        "timestamp": "2025-12-04T07:39:36.407343+00:00",
        "meta_object_name": "FENGYUN 1C DEB",
        "meta_object_id": "1999-025CF",
        "meta_epoch": "2025-12-02T18:48:53.557344",
        "meta_mean_motion": 13.54203296,
        "meta_eccentricity": 0.02983938,
        "meta_inclination": 99.4521,
        "meta_ra_of_asc_node": 159.9992,
        "meta_arg_of_pericenter": 303.918,
        "meta_mean_anomaly": 70.0924,
        "meta_ephemeris_type": 0,
        "meta_classification_type": "U",
        "meta_norad_cat_id": 29789,
        "meta_element_set_no": 999,
        "meta_rev_at_epoch": 92853,
        "meta_bstar": 0.001621275,
        "meta_mean_motion_dot": 1.419e-05,
        "meta_mean_motion_ddot": 0,
        "tle_line1": "1 29789U 99025CF  25336.78395321  .00001419  00000+0  16213-2 0  9996",
        "tle_line2": "2 29789  99.4521 159.9992 0298393 303.9180  70.0924 13.54203296928533"
      },
      "geometry": {
        "type": "Point",
        "coordinates": [
          -178.4008955228091,
          -64.171656603339
        ]
      }
    }
  ]
}